[{"OBJECT_NAME":"STARLINK-11120 [DTC]","OBJECT_ID":"2024-112E","EPOCH":"2024-10-27T18:10:48.380160","MEAN_MOTION":15.69707779,"ECCENTRICITY":0.000159,"INCLINATION":53.1588,"RA_OF_ASC_NODE":201.0059,"ARG_OF_PERICENTER":98.4295,"MEAN_ANOMALY":261.6904,"EPHEMERIS_TYPE":0,"CLASSIFICATION_TYPE":"U","NORAD_CAT_ID":60042,"ELEMENT_SET_NO":999,"REV_AT_EPOCH":2319,"BSTAR":3.8046e-5,"MEAN_MOTION_DOT":4.022e-5,"MEAN_MOTION_DDOT":0},{"OBJECT_NAME":"STARLINK-11086 [DTC]","OBJECT_ID":"2024-112F","EPOCH":"2024-10-27T18:03:44.632224","MEAN_MOTION":15.69702108,"ECCENTRICITY":0.0001508,"INCLINATION":53.1579,"RA_OF_ASC_NODE":200.9699,"ARG_OF_PERICENTER":97.5455,"MEAN_ANOMALY":262.5734,"EPHEMERIS_TYPE":0,"CLASSIFICATION_TYPE":"U","NORAD_CAT_ID":60043,"ELEMENT_SET_NO":999,"REV_AT_EPOCH":2319,"BSTAR":-4.2991e-6,"MEAN_MOTION_DOT":-1.11e-5,"MEAN_MOTION_DDOT":0},{"OBJECT_NAME":"STARLINK-11148 [DTC]","OBJECT_ID":"2024-112G","EPOCH":"2024-10-27T10:18:14.503392","MEAN_MOTION":15.69729174,"ECCENTRICITY":0.0001456,"INCLINATION":53.1574,"RA_OF_ASC_NODE":202.5058,"ARG_OF_PERICENTER":66.4397,"MEAN_ANOMALY":293.6773,"EPHEMERIS_TYPE":0,"CLASSIFICATION_TYPE":"U","NORAD_CAT_ID":60044,"ELEMENT_SET_NO":999,"REV_AT_EPOCH":2272,"BSTAR":4.2345e-5,"MEAN_MOTION_DOT":4.548e-5,"MEAN_MOTION_DDOT":0},{"OBJECT_NAME":"STARLINK-11116 [DTC]","OBJECT_ID":"2024-112H","EPOCH":"2024-10-27T17:49:36.094368","MEAN_MOTION":15.69714979,"ECCENTRICITY":0.0001073,"INCLINATION":53.1593,"RA_OF_ASC_NODE":200.9049,"ARG_OF_PERICENTER":74.7573,"MEAN_ANOMALY":285.3564,"EPHEMERIS_TYPE":0,"CLASSIFICATION_TYPE":"U","NORAD_CAT_ID":60045,"ELEMENT_SET_NO":999,"REV_AT_EPOCH":2319,"BSTAR":2.3961e-5,"MEAN_MOTION_DOT":2.316e-5,"MEAN_MOTION_DDOT":0},{"OBJECT_NAME":"STARLINK-11155 [DTC]","OBJECT_ID":"2024-112J","EPOCH":"2024-10-27T03:57:22.991616","MEAN_MOTION":15.69723222,"ECCENTRICITY":0.0001053,"INCLINATION":53.1581,"RA_OF_ASC_NODE":203.6984,"ARG_OF_PERICENTER":125.4283,"MEAN_ANOMALY":234.6834,"EPHEMERIS_TYPE":0,"CLASSIFICATION_TYPE":"U","NORAD_CAT_ID":60046,"ELEMENT_SET_NO":999,"REV_AT_EPOCH":2268,"BSTAR":7.2933e-5,"MEAN_MOTION_DOT":8.261e-5,"MEAN_MOTION_DDOT":0},{"OBJECT_NAME":"STARLINK-11163 [DTC]","OBJECT_ID":"2024-112K","EPOCH":"2024-10-27T03:50:20.089536","MEAN_MOTION":15.69703562,"ECCENTRICITY":0.0001246,"INCLINATION":53.158,"RA_OF_ASC_NODE":203.6668,"ARG_OF_PERICENTER":117.9175,"MEAN_ANOMALY":242.1969,"EPHEMERIS_TYPE":0,"CLASSIFICATION_TYPE":"U","NORAD_CAT_ID":60047,"ELEMENT_SET_NO":999,"REV_AT_EPOCH":2268,"BSTAR":3.6958e-5,"MEAN_MOTION_DOT":3.89e-5,"MEAN_MOTION_DDOT":0},{"OBJECT_NAME":"STARLINK-11135 [DTC]","OBJECT_ID":"2024-112L","EPOCH":"2024-10-27T11:07:32.673504","MEAN_MOTION":15.69727029,"ECCENTRICITY":7.93e-5,"INCLINATION":53.1576,"RA_OF_ASC_NODE":202.0139,"ARG_OF_PERICENTER":134.1178,"MEAN_ANOMALY":225.9906,"EPHEMERIS_TYPE":0,"CLASSIFICATION_TYPE":"U","NORAD_CAT_ID":60048,"ELEMENT_SET_NO":999,"REV_AT_EPOCH":2273,"BSTAR":3.8057e-5,"MEAN_MOTION_DOT":4.028e-5,"MEAN_MOTION_DDOT":0},{"OBJECT_NAME":"STARLINK-11151 [DTC]","OBJECT_ID":"2024-112M","EPOCH":"2024-10-27T03:43:15.784320","MEAN_MOTION":15.6971034,"ECCENTRICITY":0.0001082,"INCLINATION":53.1585,"RA_OF_ASC_NODE":203.6319,"ARG_OF_PERICENTER":62.9568,"MEAN_ANOMALY":297.156,"EPHEMERIS_TYPE":0,"CLASSIFICATION_TYPE":"U","NORAD_CAT_ID":60049,"ELEMENT_SET_NO":999,"REV_AT_EPOCH":2268,"BSTAR":6.6668e-5,"MEAN_MOTION_DOT":7.495e-5,"MEAN_MOTION_DDOT":0},{"OBJECT_NAME":"STARLINK-11137 [DTC]","OBJECT_ID":"2024-112N","EPOCH":"2024-10-27T00:32:47.544864","MEAN_MOTION":15.69742803,"ECCENTRICITY":8.65e-5,"INCLINATION":53.1586,"RA_OF_ASC_NODE":204.2269,"ARG_OF_PERICENTER":69.0612,"MEAN_ANOMALY":291.0498,"EPHEMERIS_TYPE":0,"CLASSIFICATION_TYPE":"U","NORAD_CAT_ID":60050,"ELEMENT_SET_NO":999,"REV_AT_EPOCH":2266,"BSTAR":5.7035e-5,"MEAN_MOTION_DOT":6.336e-5,"MEAN_MOTION_DDOT":0},{"OBJECT_NAME":"STARLINK-31811","OBJECT_ID":"2024-112P","EPOCH":"2024-10-27T13:06:20.422080","MEAN_MOTION":15.30190505,"ECCENTRICITY":0.0001227,"INCLINATION":53.162,"RA_OF_ASC_NODE":232.1695,"ARG_OF_PERICENTER":90.387,"MEAN_ANOMALY":269.7272,"EPHEMERIS_TYPE":0,"CLASSIFICATION_TYPE":"U","NORAD_CAT_ID":60051,"ELEMENT_SET_NO":999,"REV_AT_EPOCH":2232,"BSTAR":0.00018417,"MEAN_MOTION_DOT":5.098e-5,"MEAN_MOTION_DDOT":0},{"OBJECT_NAME":"STARLINK-31775","OBJECT_ID":"2024-112Q","EPOCH":"2024-10-27T12:12:51.361056","MEAN_MOTION":15.34254637,"ECCENTRICITY":0.0001066,"INCLINATION":53.1597,"RA_OF_ASC_NODE":232.6539,"ARG_OF_PERICENTER":57.4937,"MEAN_ANOMALY":302.6168,"EPHEMERIS_TYPE":0,"CLASSIFICATION_TYPE":"U","NORAD_CAT_ID":60052,"ELEMENT_SET_NO":999,"REV_AT_EPOCH":2231,"BSTAR":0.00027158,"MEAN_MOTION_DOT":8.769e-5,"MEAN_MOTION_DDOT":0},{"OBJECT_NAME":"STARLINK-31793","OBJECT_ID":"2024-112R","EPOCH":"2024-10-27T12:33:28.509696","MEAN_MOTION":15.34244125,"ECCENTRICITY":0.0001189,"INCLINATION":53.1606,"RA_OF_ASC_NODE":232.7461,"ARG_OF_PERICENTER":54.6101,"MEAN_ANOMALY":305.5012,"EPHEMERIS_TYPE":0,"CLASSIFICATION_TYPE":"U","NORAD_CAT_ID":60053,"ELEMENT_SET_NO":999,"REV_AT_EPOCH":2231,"BSTAR":0.00024732,"MEAN_MOTION_DOT":7.948e-5,"MEAN_MOTION_DDOT":0},{"OBJECT_NAME":"STARLINK-31735","OBJECT_ID":"2024-112S","EPOCH":"2024-10-27T19:41:47.455296","MEAN_MOTION":15.34207397,"ECCENTRICITY":9.41e-5,"INCLINATION":53.1612,"RA_OF_ASC_NODE":231.0468,"ARG_OF_PERICENTER":72.5015,"MEAN_ANOMALY":287.6091,"EPHEMERIS_TYPE":0,"CLASSIFICATION_TYPE":"U","NORAD_CAT_ID":60054,"ELEMENT_SET_NO":999,"REV_AT_EPOCH":2262,"BSTAR":-2.4319e-5,"MEAN_MOTION_DOT":-1.192e-5,"MEAN_MOTION_DDOT":0},{"OBJECT_NAME":"STARLINK-31788","OBJECT_ID":"2024-112T","EPOCH":"2024-10-27T19:27:51.013440","MEAN_MOTION":15.34237852,"ECCENTRICITY":0.0001416,"INCLINATION":53.1611,"RA_OF_ASC_NODE":230.9845,"ARG_OF_PERICENTER":90.1906,"MEAN_ANOMALY":269.9259,"EPHEMERIS_TYPE":0,"CLASSIFICATION_TYPE":"U","NORAD_CAT_ID":60055,"ELEMENT_SET_NO":999,"REV_AT_EPOCH":2268,"BSTAR":4.323e-5,"MEAN_MOTION_DOT":1.078e-5,"MEAN_MOTION_DDOT":0},{"OBJECT_NAME":"STARLINK-31825","OBJECT_ID":"2024-112U","EPOCH":"2024-10-27T05:44:12.222240","MEAN_MOTION":15.34238425,"ECCENTRICITY":8.76e-5,"INCLINATION":53.1621,"RA_OF_ASC_NODE":233.814,"ARG_OF_PERICENTER":99.8426,"MEAN_ANOMALY":260.2676,"EPHEMERIS_TYPE":0,"CLASSIFICATION_TYPE":"U","NORAD_CAT_ID":60056,"ELEMENT_SET_NO":999,"REV_AT_EPOCH":2227,"BSTAR":0.00019534,"MEAN_MOTION_DOT":6.196e-5,"MEAN_MOTION_DDOT":0},{"OBJECT_NAME":"STARLINK-31437","OBJECT_ID":"2024-112V","EPOCH":"2024-10-27T12:26:45.771648","MEAN_MOTION":15.34229583,"ECCENTRICITY":9.44e-5,"INCLINATION":53.1612,"RA_OF_ASC_NODE":232.7176,"ARG_OF_PERICENTER":132.3934,"MEAN_ANOMALY":227.7148,"EPHEMERIS_TYPE":0,"CLASSIFICATION_TYPE":"U","NORAD_CAT_ID":60057,"ELEMENT_SET_NO":999,"REV_AT_EPOCH":2231,"BSTAR":0.00014832,"MEAN_MOTION_DOT":4.612e-5,"MEAN_MOTION_DDOT":0},{"OBJECT_NAME":"STARLINK-11181 [DTC]","OBJECT_ID":"2024-113A","EPOCH":"2024-10-27T16:40:52.559328","MEAN_MOTION":15.69696105,"ECCENTRICITY":6.15e-5,"INCLINATION":53.1566,"RA_OF_ASC_NODE":126.2863,"ARG_OF_PERICENTER":70.1927,"MEAN_ANOMALY":289.9157,"EPHEMERIS_TYPE":0,"CLASSIFICATION_TYPE":"U","NORAD_CAT_ID":60059,"ELEMENT_SET_NO":999,"REV_AT_EPOCH":2176,"BSTAR":2.564e-5,"MEAN_MOTION_DOT":2.518e-5,"MEAN_MOTION_DDOT":0},{"OBJECT_NAME":"STARLINK-11176 [DTC]","OBJECT_ID":"2024-113B","EPOCH":"2024-10-27T16:33:48.311136","MEAN_MOTION":15.69716137,"ECCENTRICITY":8.65e-5,"INCLINATION":53.1564,"RA_OF_ASC_NODE":126.2526,"ARG_OF_PERICENTER":97.1054,"MEAN_ANOMALY":263.0063,"EPHEMERIS_TYPE":0,"CLASSIFICATION_TYPE":"U","NORAD_CAT_ID":60060,"ELEMENT_SET_NO":999,"REV_AT_EPOCH":2154,"BSTAR":2.3912e-5,"MEAN_MOTION_DOT":2.31e-5,"MEAN_MOTION_DDOT":0},{"OBJECT_NAME":"STARLINK-11167 [DTC]","OBJECT_ID":"2024-113C","EPOCH":"2024-10-27T21:01:48.301536","MEAN_MOTION":15.69687375,"ECCENTRICITY":0.0001261,"INCLINATION":53.1561,"RA_OF_ASC_NODE":125.2787,"ARG_OF_PERICENTER":29.0726,"MEAN_ANOMALY":331.0362,"EPHEMERIS_TYPE":0,"CLASSIFICATION_TYPE":"U","NORAD_CAT_ID":60061,"ELEMENT_SET_NO":999,"REV_AT_EPOCH":2168,"BSTAR":0.00023801,"MEAN_MOTION_DOT":0.00028317,"MEAN_MOTION_DDOT":0},{"OBJECT_NAME":"STARLINK-11166 [DTC]","OBJECT_ID":"2024-113D","EPOCH":"2024-10-27T19:23:03.342048","MEAN_MOTION":15.69661381,"ECCENTRICITY":0.0001579,"INCLINATION":53.1554,"RA_OF_ASC_NODE":125.5606,"ARG_OF_PERICENTER":304.5141,"MEAN_ANOMALY":55.5727,"EPHEMERIS_TYPE":0,"CLASSIFICATION_TYPE":"U","NORAD_CAT_ID":60062,"ELEMENT_SET_NO":999,"REV_AT_EPOCH":2166,"BSTAR":-9.343e-6,"MEAN_MOTION_DOT":-1.718e-5,"MEAN_MOTION_DDOT":0},{"OBJECT_NAME":"STARLINK-11165 [DTC]","OBJECT_ID":"2024-113E","EPOCH":"2024-10-27T17:44:18.019680","MEAN_MOTION":15.69686067,"ECCENTRICITY":4.54e-5,"INCLINATION":53.1554,"RA_OF_ASC_NODE":125.84,"ARG_OF_PERICENTER":164.5436,"MEAN_ANOMALY":195.5596,"EPHEMERIS_TYPE":0,"CLASSIFICATION_TYPE":"U","NORAD_CAT_ID":60063,"ELEMENT_SET_NO":999,"REV_AT_EPOCH":2155,"BSTAR":6.7771e-5,"MEAN_MOTION_DOT":7.622e-5,"MEAN_MOTION_DDOT":0},{"OBJECT_NAME":"STARLINK-11169 [DTC]","OBJECT_ID":"2024-113F","EPOCH":"2024-10-27T19:08:57.480864","MEAN_MOTION":15.69683509,"ECCENTRICITY":5.1e-5,"INCLINATION":53.1574,"RA_OF_ASC_NODE":125.4946,"ARG_OF_PERICENTER":338.7492,"MEAN_ANOMALY":21.3504,"EPHEMERIS_TYPE":0,"CLASSIFICATION_TYPE":"U","NORAD_CAT_ID":60064,"ELEMENT_SET_NO":999,"REV_AT_EPOCH":2141,"BSTAR":-4.7348e-5,"MEAN_MOTION_DOT":-6.313e-5,"MEAN_MOTION_DDOT":0},{"OBJECT_NAME":"STARLINK-11102 [DTC]","OBJECT_ID":"2024-113G","EPOCH":"2024-10-27T19:01:52.074048","MEAN_MOTION":15.69682837,"ECCENTRICITY":6.9e-5,"INCLINATION":53.1561,"RA_OF_ASC_NODE":125.4619,"ARG_OF_PERICENTER":319.1018,"MEAN_ANOMALY":40.9948,"EPHEMERIS_TYPE":0,"CLASSIFICATION_TYPE":"U","NORAD_CAT_ID":60065,"ELEMENT_SET_NO":999,"REV_AT_EPOCH":2155,"BSTAR":-9.8776e-5,"MEAN_MOTION_DOT":-0.00012522,"MEAN_MOTION_DDOT":0}]